[{"OBJECT_NAME":"STARLINK-34491","OBJECT_ID":"2025-147AB","EPOCH":"2026-03-09T17:56:26.502144","MEAN_MOTION":15.30208811,"ECCENTRICITY":8.96e-5,"INCLINATION":53.1592,"RA_OF_ASC_NODE":242.26,"ARG_OF_PERICENTER":94.2011,"MEAN_ANOMALY":265.9092,"EPHEMERIS_TYPE":0,"CLASSIFICATION_TYPE":"U","NORAD_CAT_ID":64780,"ELEMENT_SET_NO":999,"REV_AT_EPOCH":3876,"BSTAR":0.0010265496,"MEAN_MOTION_DOT":0.00030176,"MEAN_MOTION_DDOT":0},{"OBJECT_NAME":"239ALFEROV (RS61S)","OBJECT_ID":"2025-155F","EPOCH":"2026-03-09T21:46:33.382848","MEAN_MOTION":15.29933217,"ECCENTRICITY":0.00084878,"INCLINATION":97.4469,"RA_OF_ASC_NODE":37.6373,"ARG_OF_PERICENTER":151.5904,"MEAN_ANOMALY":208.58,"EPHEMERIS_TYPE":0,"CLASSIFICATION_TYPE":"U","NORAD_CAT_ID":64881,"ELEMENT_SET_NO":999,"REV_AT_EPOCH":6561,"BSTAR":0.00067233359,"MEAN_MOTION_DOT":0.00019457,"MEAN_MOTION_DDOT":0}]
